{"type": "FeatureCollection", "features": [ {"type": "Feature", "properties": {"norad_id": 66757, "name": "TRANSPORTER-15 CV", "group": "last-30-days", "lat": -57.214441863029904, "lon": 79.74461367870535, "alt_km": 519.7154857700607, "timestamp": "2025-12-22T09:53:36.144337+00:00", "meta": {"OBJECT_NAME": "TRANSPORTER-15 CV", "OBJECT_ID": "2025-276CV", "EPOCH": "2025-12-22T03:49:14.035008", "MEAN_MOTION": 15.18056669, "ECCENTRICITY": 0.0001582, "INCLINATION": 97.4428, "RA_OF_ASC_NODE": 67.7855, "ARG_OF_PERICENTER": 157.8018, "MEAN_ANOMALY": 202.3285, "EPHEMERIS_TYPE": 0, "CLASSIFICATION_TYPE": "U", "NORAD_CAT_ID": 66757, "ELEMENT_SET_NO": 999, "REV_AT_EPOCH": 355, "BSTAR": 0.00055003, "MEAN_MOTION_DOT": 0.00011143, "MEAN_MOTION_DDOT": 0}, "tle": {"line1": "1 66757U 25276CV  25356.15919022  .00011143  00000+0  55003-3 0  9998", "line2": "2 66757  97.4428  67.7855 0001582 157.8018 202.3285 15.18056669  3553"}}, "geometry": {"type": "Point", "coordinates": [79.74461367870535, -57.214441863029904]}}, {"type": "Feature", "properties": {"norad_id": 66758, "name": "TRANSPORTER-15 CW", "group": "last-30-days", "lat": -55.78747180570342, "lon": 79.10598408692333, "alt_km": 519.5922157387058, "timestamp": "2025-12-22T09:53:36.144347+00:00", "meta": {"OBJECT_NAME": "TRANSPORTER-15 CW", "OBJECT_ID": "2025-276CW", "EPOCH": "2025-12-22T03:48:50.719968", "MEAN_MOTION": 15.18059471, "ECCENTRICITY": 0.0001226, "INCLINATION": 97.4397, "RA_OF_ASC_NODE": 67.7764, "ARG_OF_PERICENTER": 141.7766, "MEAN_ANOMALY": 218.3555, "EPHEMERIS_TYPE": 0, "CLASSIFICATION_TYPE": "U", "NORAD_CAT_ID": 66758, "ELEMENT_SET_NO": 999, "REV_AT_EPOCH": 355, "BSTAR": 0.00045527, "MEAN_MOTION_DOT": 9.21e-05, "MEAN_MOTION_DDOT": 0}, "tle": {"line1": "1 66758U 25276CW  25356.15892037  .00009210  00000+0  45527-3 0  9997", "line2": "2 66758  97.4397  67.7764 0001226 141.7766 218.3555 15.18059471  3556"}}, "geometry": {"type": "Point", "coordinates": [79.10598408692333, -55.78747180570342]}}, {"type": "Feature", "properties": {"norad_id": 66759, "name": "TRANSPORTER-15 CX", "group": "last-30-days", "lat": -47.246984981533004, "lon": 76.1487995024101, "alt_km": 519.1836271739476, "timestamp": "2025-12-22T09:53:36.144357+00:00", "meta": {"OBJECT_NAME": "TRANSPORTER-15 CX", "OBJECT_ID": "2025-276CX", "EPOCH": "2025-12-22T02:11:39.759360", "MEAN_MOTION": 15.18197244, "ECCENTRICITY": 0.0001541, "INCLINATION": 97.4384, "RA_OF_ASC_NODE": 67.7091, "ARG_OF_PERICENTER": 138.65, "MEAN_ANOMALY": 221.4851, "EPHEMERIS_TYPE": 0, "CLASSIFICATION_TYPE": "U", "NORAD_CAT_ID": 66759, "ELEMENT_SET_NO": 999, "REV_AT_EPOCH": 354, "BSTAR": 0.00063825, "MEAN_MOTION_DOT": 0.00012997, "MEAN_MOTION_DDOT": 0}, "tle": {"line1": "1 66759U 25276CX  25356.09143240  .00012997  00000+0  63825-3 0  9993", "line2": "2 66759  97.4384  67.7091 0001541 138.6500 221.4851 15.18197244  3541"}}, "geometry": {"type": "Point", "coordinates": [76.1487995024101, -47.246984981533004]}}, {"type": "Feature", "properties": {"norad_id": 66760, "name": "TRANSPORTER-15 CY", "group": "last-30-days", "lat": -45.18434749709373, "lon": 75.58946168239977, "alt_km": 519.0974542961467, "timestamp": "2025-12-22T09:53:36.144367+00:00", "meta": {"OBJECT_NAME": "TRANSPORTER-15 CY", "OBJECT_ID": "2025-276CY", "EPOCH": "2025-12-22T02:11:06.154080", "MEAN_MOTION": 15.1818231, "ECCENTRICITY": 0.000158, "INCLINATION": 97.4398, "RA_OF_ASC_NODE": 67.7163, "ARG_OF_PERICENTER": 111.6232, "MEAN_ANOMALY": 248.517, "EPHEMERIS_TYPE": 0, "CLASSIFICATION_TYPE": "U", "NORAD_CAT_ID": 66760, "ELEMENT_SET_NO": 999, "REV_AT_EPOCH": 354, "BSTAR": 0.0005743, "MEAN_MOTION_DOT": 0.00011681, "MEAN_MOTION_DDOT": 0}, "tle": {"line1": "1 66760U 25276CY  25356.09104345  .00011681  00000+0  57430-3 0  9992", "line2": "2 66760  97.4398  67.7163 0001580 111.6232 248.5170 15.18182310  3546"}}, "geometry": {"type": "Point", "coordinates": [75.58946168239977, -45.18434749709373]}}, {"type": "Feature", "properties": {"norad_id": 66761, "name": "TRANSPORTER-15 CZ", "group": "last-30-days", "lat": -32.094493626952705, "lon": 72.73812616815941, "alt_km": 517.6524713664849, "timestamp": "2025-12-22T09:53:36.144377+00:00", "meta": {"OBJECT_NAME": "TRANSPORTER-15 CZ", "OBJECT_ID": "2025-276CZ", "EPOCH": "2025-12-22T03:42:34.422048", "MEAN_MOTION": 15.18452569, "ECCENTRICITY": 0.0001552, "INCLINATION": 97.44, "RA_OF_ASC_NODE": 67.7836, "ARG_OF_PERICENTER": 126.5511, "MEAN_ANOMALY": 233.5866, "EPHEMERIS_TYPE": 0, "CLASSIFICATION_TYPE": "U", "NORAD_CAT_ID": 66761, "ELEMENT_SET_NO": 999, "REV_AT_EPOCH": 355, "BSTAR": 0.00057042, "MEAN_MOTION_DOT": 0.00011692, "MEAN_MOTION_DDOT": 0}, "tle": {"line1": "1 66761U 25276CZ  25356.15456507  .00011692  00000+0  57042-3 0  9991", "line2": "2 66761  97.4400  67.7836 0001552 126.5511 233.5866 15.18452569  3555"}}, "geometry": {"type": "Point", "coordinates": [72.73812616815941, -32.094493626952705]}}, {"type": "Feature", "properties": {"norad_id": 66762, "name": "HYDROGNSS-1", "group": "last-30-days", "lat": -62.54506653159265, "lon": -126.56536876123204, "alt_km": 520.6493342463164, "timestamp": "2025-12-22T09:53:36.144389+00:00", "meta": {"OBJECT_NAME": "HYDROGNSS-1", "OBJECT_ID": "2025-276DA", "EPOCH": "2025-12-21T18:34:42.854304", "MEAN_MOTION": 15.17287001, "ECCENTRICITY": 9.56e-05, "INCLINATION": 97.4413, "RA_OF_ASC_NODE": 67.3776, "ARG_OF_PERICENTER": 272.2189, "MEAN_ANOMALY": 87.8935, "EPHEMERIS_TYPE": 0, "CLASSIFICATION_TYPE": "U", "NORAD_CAT_ID": 66762, "ELEMENT_SET_NO": 999, "REV_AT_EPOCH": 349, "BSTAR": 0.00025838, "MEAN_MOTION_DOT": 5.081e-05, "MEAN_MOTION_DDOT": 0}, "tle": {"line1": "1 66762U 25276DA  25355.77410711  .00005081  00000+0  25838-3 0  9999", "line2": "2 66762  97.4413  67.3776 0000956 272.2189  87.8935 15.17287001  3492"}}, "geometry": {"type": "Point", "coordinates": [-126.56536876123204, -62.54506653159265]}}, {"type": "Feature", "properties": {"norad_id": 66763, "name": "HYDROGNSS-2", "group": "last-30-days", "lat": -72.65808950201418, "lon": -136.73186898644903, "alt_km": 520.004616189819, "timestamp": "2025-12-22T09:53:36.144401+00:00", "meta": {"OBJECT_NAME": "HYDROGNSS-2", "OBJECT_ID": "2025-276DB", "EPOCH": "2025-12-22T00:51:46.372896", "MEAN_MOTION": 15.17416685, "ECCENTRICITY": 0.0001415, "INCLINATION": 97.4417, "RA_OF_ASC_NODE": 67.6433, "ARG_OF_PERICENTER": 245.9503, "MEAN_ANOMALY": 114.1583, "EPHEMERIS_TYPE": 0, "CLASSIFICATION_TYPE": "U", "NORAD_CAT_ID": 66763, "ELEMENT_SET_NO": 999, "REV_AT_EPOCH": 353, "BSTAR": 0.00018659, "MEAN_MOTION_DOT": 3.664e-05, "MEAN_MOTION_DDOT": 0}, "tle": {"line1": "1 66763U 25276DB  25356.03595339  .00003664  00000+0  18659-3 0  9998", "line2": "2 66763  97.4417  67.6433 0001415 245.9503 114.1583 15.17416685  3538"}}, "geometry": {"type": "Point", "coordinates": [-136.73186898644903, -72.65808950201418]}}, {"type": "Feature", "properties": {"norad_id": 66764, "name": "TRANSPORTER-15 DC", "group": "last-30-days", "lat": -79.26180931676495, "lon": 111.58154311710263, "alt_km": 519.9302292688599, "timestamp": "2025-12-22T09:53:36.144410+00:00", "meta": {"OBJECT_NAME": "TRANSPORTER-15 DC", "OBJECT_ID": "2025-276DC", "EPOCH": "2025-12-22T03:55:33.337056", "MEAN_MOTION": 15.17682564, "ECCENTRICITY": 0.0002012, "INCLINATION": 97.441, "RA_OF_ASC_NODE": 67.7727, "ARG_OF_PERICENTER": 199.7349, "MEAN_ANOMALY": 160.3807, "EPHEMERIS_TYPE": 0, "CLASSIFICATION_TYPE": "U", "NORAD_CAT_ID": 66764, "ELEMENT_SET_NO": 999, "REV_AT_EPOCH": 355, "BSTAR": 0.00029829, "MEAN_MOTION_DOT": 5.944e-05, "MEAN_MOTION_DDOT": 0}, "tle": {"line1": "1 66764U 25276DC  25356.16358029  .00005944  00000+0  29829-3 0  9990", "line2": "2 66764  97.4410  67.7727 0002012 199.7349 160.3807 15.17682564  3552"}}, "geometry": {"type": "Point", "coordinates": [111.58154311710263, -79.26180931676495]}}, {"type": "Feature", "properties": {"norad_id": 66765, "name": "TRANSPORTER-15 DD", "group": "last-30-days", "lat": -14.41587414405293, "lon": 69.97730888742332, "alt_km": 515.3496960491921, "timestamp": "2025-12-22T09:53:36.144422+00:00", "meta": {"OBJECT_NAME": "TRANSPORTER-15 DD", "OBJECT_ID": "2025-276DD", "EPOCH": "2025-12-22T03:37:55.471008", "MEAN_MOTION": 15.18706155, "ECCENTRICITY": 0.0001829, "INCLINATION": 97.4426, "RA_OF_ASC_NODE": 67.7948, "ARG_OF_PERICENTER": 120.1718, "MEAN_ANOMALY": 239.9698, "EPHEMERIS_TYPE": 0, "CLASSIFICATION_TYPE": "U", "NORAD_CAT_ID": 66765, "ELEMENT_SET_NO": 999, "REV_AT_EPOCH": 355, "BSTAR": 0.00072289, "MEAN_MOTION_DOT": 0.00014951, "MEAN_MOTION_DDOT": 0}, "tle": {"line1": "1 66765U 25276DD  25356.15133647  .00014951  00000+0  72289-3 0  9993", "line2": "2 66765  97.4426  67.7948 0001829 120.1718 239.9698 15.18706155  3553"}}, "geometry": {"type": "Point", "coordinates": [69.97730888742332, -14.41587414405293]}}, {"type": "Feature", "properties": {"norad_id": 66766, "name": "TRANSPORTER-15 DE", "group": "last-30-days", "lat": -28.72224902580735, "lon": 72.13296168541594, "alt_km": 517.2351261740359, "timestamp": "2025-12-22T09:53:36.144433+00:00", "meta": {"OBJECT_NAME": "TRANSPORTER-15 DE", "OBJECT_ID": "2025-276DE", "EPOCH": "2025-12-22T03:41:39.571008", "MEAN_MOTION": 15.18400624, "ECCENTRICITY": 0.0002017, "INCLINATION": 97.4363, "RA_OF_ASC_NODE": 67.7746, "ARG_OF_PERICENTER": 89.0974, "MEAN_ANOMALY": 271.0491, "EPHEMERIS_TYPE": 0, "CLASSIFICATION_TYPE": "U", "NORAD_CAT_ID": 66766, "ELEMENT_SET_NO": 999, "REV_AT_EPOCH": 355, "BSTAR": 0.00054815, "MEAN_MOTION_DOT": 0.00011216, "MEAN_MOTION_DDOT": 0}, "tle": {"line1": "1 66766U 25276DE  25356.15393022  .00011216  00000+0  54815-3 0  9995", "line2": "2 66766  97.4363  67.7746 0002017  89.0974 271.0491 15.18400624  3557"}}, "geometry": {"type": "Point", "coordinates": [72.13296168541594, -28.72224902580735]}}]}